start=new Date('2022-08-05T00:00:00.000Z').valueOf();
sats=[{"REF_FRAME":"TEME","OBJECT_ID":"2020-038Z","OBJECT_TYPE":"PAYLOAD","BSTAR":"-0.00051761000000","CLASSIFICATION_TYPE":"U","INCLINATION":"53.0555","RCS_SIZE":"LARGE","GP_ID":"209588043","SEMIMAJOR_AXIS":"6925.271","TIME_SYSTEM":"UTC","EPOCH":"2022-08-04T18:29:39.631776","MEAN_ANOMALY":"243.1252","ARG_OF_PERICENTER":"116.9913","MEAN_MOTION":"15.06425339","DECAY_DATE":null,"APOAPSIS":"548.326","MEAN_MOTION_DOT":"-0.00007988","CENTER_NAME":"EARTH","EPHEMERIS_TYPE":"0","NORAD_CAT_ID":"45753","MEAN_ELEMENT_THEORY":"SGP4","TLE_LINE2":"2 45753  53.0555 350.5420 0001719 116.9913 243.1252 15.06425339118597","LAUNCH_DATE":"2020-06-13","ECCENTRICITY":"0.00017190","SITE":"AFETR","MEAN_MOTION_DDOT":"0.0000000000000","RA_OF_ASC_NODE":"350.5420","PERIAPSIS":"545.945","REV_AT_EPOCH":"11859","COUNTRY_CODE":"US","OBJECT_NAME":"STARLINK-1476","PERIOD":"95.591","FILE":"3529274","TLE_LINE1":"1 45753U 20038Z   22216.77059759 -.00007988  00000-0 -51761-3 0  9996","ELEMENT_SET_NO":"999"},{"ELEMENT_SET_NO":"999","TLE_LINE1":"1 45754U 20038AA  22216.77428334  .00000797  00000-0  72364-4 0  9998","FILE":"3529274","PERIOD":"95.592","OBJECT_NAME":"STARLINK-1477","REV_AT_EPOCH":"11859","COUNTRY_CODE":"US","PERIAPSIS":"546.334","RA_OF_ASC_NODE":"350.5246","MEAN_MOTION_DDOT":"0.0000000000000","SITE":"AFETR","ECCENTRICITY":"0.00012360","LAUNCH_DATE":"2020-06-13","TLE_LINE2":"2 45754  53.0567 350.5246 0001236 112.4163 247.6957 15.06407776118595","MEAN_ELEMENT_THEORY":"SGP4","NORAD_CAT_ID":"45754","EPHEMERIS_TYPE":"0","CENTER_NAME":"EARTH","MEAN_MOTION_DOT":"0.00000797","APOAPSIS":"548.046","DECAY_DATE":null,"MEAN_MOTION":"15.06407776","ARG_OF_PERICENTER":"112.4163","MEAN_ANOMALY":"247.6957","EPOCH":"2022-08-04T18:34:58.080576","TIME_SYSTEM":"UTC","SEMIMAJOR_AXIS":"6925.325","GP_ID":"209586793","RCS_SIZE":"LARGE","CLASSIFICATION_TYPE":"U","INCLINATION":"53.0567","BSTAR":"0.00007236400000","OBJECT_TYPE":"PAYLOAD","OBJECT_ID":"2020-038AA","REF_FRAME":"TEME"},{"MEAN_MOTION":"15.06390583","ARG_OF_PERICENTER":"81.1674","MEAN_ANOMALY":"278.9467","EPOCH":"2022-08-04T19:01:31.312128","SEMIMAJOR_AXIS":"6925.377","TIME_SYSTEM":"UTC","RCS_SIZE":"LARGE","GP_ID":"209586544","OBJECT_ID":"2020-038AB","REF_FRAME":"TEME","INCLINATION":"53.0545","CLASSIFICATION_TYPE":"U","OBJECT_TYPE":"PAYLOAD","BSTAR":"0.00005364300000","FILE":"3529274","TLE_LINE1":"1 45755U 20038AB  22216.79272352  .00000517  00000-0  53643-4 0  9997","PERIOD":"95.593","ELEMENT_SET_NO":"999","RA_OF_ASC_NODE":"350.4416","OBJECT_NAME":"STARLINK-1478","PERIAPSIS":"546.314","COUNTRY_CODE":"US","REV_AT_EPOCH":"11858","ECCENTRICITY":"0.00013410","LAUNCH_DATE":"2020-06-13","SITE":"AFETR","MEAN_ELEMENT_THEORY":"SGP4","TLE_LINE2":"2 45755  53.0545 350.4416 0001341  81.1674 278.9467 15.06390583118585","MEAN_MOTION_DDOT":"0.0000000000000","CENTER_NAME":"EARTH","EPHEMERIS_TYPE":"0","APOAPSIS":"548.171","DECAY_DATE":null,"MEAN_MOTION_DOT":"0.00000517","NORAD_CAT_ID":"45755"},{"MEAN_MOTION":"15.06407514","ARG_OF_PERICENTER":"73.1678","MEAN_ANOMALY":"286.9459","EPOCH":"2022-08-04T18:54:50.551776","SEMIMAJOR_AXIS":"6925.326","TIME_SYSTEM":"UTC","GP_ID":"209587795","RCS_SIZE":"LARGE","OBJECT_ID":"2020-038AC","REF_FRAME":"TEME","CLASSIFICATION_TYPE":"U","INCLINATION":"53.0571","BSTAR":"0.00003333600000","OBJECT_TYPE":"PAYLOAD","TLE_LINE1":"1 45756U 20038AC  22216.78808509  .00000215  00000-0  33336-4 0  9998","FILE":"3529274","PERIOD":"95.592","ELEMENT_SET_NO":"999","RA_OF_ASC_NODE":"350.4608","OBJECT_NAME":"STARLINK-1484","REV_AT_EPOCH":"11858","COUNTRY_CODE":"US","PERIAPSIS":"546.259","SITE":"AFETR","ECCENTRICITY":"0.00013450","LAUNCH_DATE":"2020-06-13","TLE_LINE2":"2 45756  53.0571 350.4608 0001345  73.1678 286.9459 15.06407514118580","MEAN_ELEMENT_THEORY":"SGP4","MEAN_MOTION_DDOT":"0.0000000000000","EPHEMERIS_TYPE":"0","CENTER_NAME":"EARTH","MEAN_MOTION_DOT":"0.00000215","APOAPSIS":"548.122","DECAY_DATE":null,"NORAD_CAT_ID":"45756"},{"CENTER_NAME":"EARTH","EPHEMERIS_TYPE":"0","DECAY_DATE":null,"APOAPSIS":"548.134","MEAN_MOTION_DOT":"-0.00000056","NORAD_CAT_ID":"45757","LAUNCH_DATE":"2020-06-13","ECCENTRICITY":"0.00013020","SITE":"AFETR","MEAN_ELEMENT_THEORY":"SGP4","TLE_LINE2":"2 45757  53.0567 350.6801 0001302  76.2735 283.8399 15.06393738118574","MEAN_MOTION_DDOT":"0.0000000000000","RA_OF_ASC_NODE":"350.6801","OBJECT_NAME":"STARLINK-1486","PERIAPSIS":"546.331","COUNTRY_CODE":"US","REV_AT_EPOCH":"11857","FILE":"3529274","TLE_LINE1":"1 45757U 20038AD  22216.74111879 -.00000056  00000-0  15134-4 0  9992","PERIOD":"95.593","ELEMENT_SET_NO":"999","REF_FRAME":"TEME","OBJECT_ID":"2020-038AD","CLASSIFICATION_TYPE":"U","INCLINATION":"53.0567","OBJECT_TYPE":"PAYLOAD","BSTAR":"0.00001513400000","RCS_SIZE":"LARGE","GP_ID":"209587545","EPOCH":"2022-08-04T17:47:12.663456","MEAN_ANOMALY":"283.8399","SEMIMAJOR_AXIS":"6925.368","TIME_SYSTEM":"UTC","MEAN_MOTION":"15.06393738","ARG_OF_PERICENTER":"76.2735"},{"MEAN_ANOMALY":"283.0865","EPOCH":"2022-08-04T19:12:08.085312","TIME_SYSTEM":"UTC","SEMIMAJOR_AXIS":"6925.367","MEAN_MOTION":"15.06394052","ARG_OF_PERICENTER":"77.0276","REF_FRAME":"TEME","OBJECT_ID":"2020-038AE","INCLINATION":"53.0565","CLASSIFICATION_TYPE":"U","BSTAR":"0.00001358600000","OBJECT_TYPE":"PAYLOAD","GP_ID":"209586294","RCS_SIZE":"LARGE","RA_OF_ASC_NODE":"350.4082","OBJECT_NAME":"STARLINK-1487","COUNTRY_CODE":"US","REV_AT_EPOCH":"11858","PERIAPSIS":"546.289","TLE_LINE1":"1 45758U 20038AE  22216.80009358 -.00000079  00000-0  13586-4 0  9992","FILE":"3529274","PERIOD":"95.593","ELEMENT_SET_NO":"999","EPHEMERIS_TYPE":"0","CENTER_NAME":"EARTH","MEAN_MOTION_DOT":"-0.00000079","DECAY_DATE":null,"APOAPSIS":"548.174","NORAD_CAT_ID":"45758","SITE":"AFETR","ECCENTRICITY":"0.00013610","LAUNCH_DATE":"2020-06-13","TLE_LINE2":"2 45758  53.0565 350.4082 0001361  77.0276 283.0865 15.06394052118587","MEAN_ELEMENT_THEORY":"SGP4","MEAN_MOTION_DDOT":"0.0000000000000"},{"ARG_OF_PERICENTER":"70.1370","MEAN_MOTION":"15.06401822","TIME_SYSTEM":"UTC","SEMIMAJOR_AXIS":"6925.343","EPOCH":"2022-08-04T18:45:35.182944","MEAN_ANOMALY":"289.9752","GP_ID":"209566010","RCS_SIZE":"LARGE","BSTAR":"0.00001584900000","OBJECT_TYPE":"PAYLOAD","CLASSIFICATION_TYPE":"U","INCLINATION":"53.0574","OBJECT_ID":"2020-038AF","REF_FRAME":"TEME","ELEMENT_SET_NO":"999","PERIOD":"95.592","TLE_LINE1":"1 45759U 20038AF  22216.78165721 -.00000045  00000-0  15849-4 0  9994","FILE":"3529201","COUNTRY_CODE":"US","REV_AT_EPOCH":"11951","PERIAPSIS":"546.351","OBJECT_NAME":"STARLINK-1493","RA_OF_ASC_NODE":"350.4995","MEAN_MOTION_DDOT":"0.0000000000000","TLE_LINE2":"2 45759  53.0574 350.4995 0001237  70.1370 289.9752 15.06401822119510","MEAN_ELEMENT_THEORY":"SGP4","SITE":"AFETR","ECCENTRICITY":"0.00012370","LAUNCH_DATE":"2020-06-13","NORAD_CAT_ID":"45759","MEAN_MOTION_DOT":"-0.00000045","APOAPSIS":"548.065","DECAY_DATE":null,"EPHEMERIS_TYPE":"0","CENTER_NAME":"EARTH"},{"REF_FRAME":"TEME","OBJECT_ID":"2020-038AG","CLASSIFICATION_TYPE":"U","INCLINATION":"53.0551","OBJECT_TYPE":"PAYLOAD","BSTAR":"0.00004301300000","RCS_SIZE":"LARGE","GP_ID":"209587296","EPOCH":"2022-08-04T18:50:54.055104","MEAN_ANOMALY":"273.5757","TIME_SYSTEM":"UTC","SEMIMAJOR_AXIS":"6925.357","MEAN_MOTION":"15.06397394","ARG_OF_PERICENTER":"86.5385","CENTER_NAME":"EARTH","EPHEMERIS_TYPE":"0","APOAPSIS":"548.151","DECAY_DATE":null,"MEAN_MOTION_DOT":"0.00000359","NORAD_CAT_ID":"45760","LAUNCH_DATE":"2020-06-13","ECCENTRICITY":"0.00013420","SITE":"AFETR","MEAN_ELEMENT_THEORY":"SGP4","TLE_LINE2":"2 45760  53.0551 350.4785 0001342  86.5385 273.5757 15.06397394118597","MEAN_MOTION_DDOT":"0.0000000000000","RA_OF_ASC_NODE":"350.4785","OBJECT_NAME":"STARLINK-1494","PERIAPSIS":"546.292","COUNTRY_CODE":"US","REV_AT_EPOCH":"11859","FILE":"3529274","TLE_LINE1":"1 45760U 20038AG  22216.78534786  .00000359  00000-0  43013-4 0  9998","PERIOD":"95.592","ELEMENT_SET_NO":"999"},{"ARG_OF_PERICENTER":"315.0520","MEAN_MOTION":"15.76731302","TIME_SYSTEM":"UTC","SEMIMAJOR_AXIS":"6717.846","EPOCH":"2022-08-04T09:12:50.305248","MEAN_ANOMALY":"44.9941","GP_ID":"209557341","RCS_SIZE":"LARGE","BSTAR":"-0.00000766260000","OBJECT_TYPE":"PAYLOAD","INCLINATION":"53.0416","CLASSIFICATION_TYPE":"U","OBJECT_ID":"2020-038AH","REF_FRAME":"TEME","ELEMENT_SET_NO":"999","PERIOD":"91.328","TLE_LINE1":"1 45761U 20038AH  22216.38391557 -.00001922  00000-0 -76626-5 0  9998","FILE":"3529060","COUNTRY_CODE":"US","REV_AT_EPOCH":"12050","PERIAPSIS":"335.087","OBJECT_NAME":"STARLINK-1495","RA_OF_ASC_NODE":"212.3049","MEAN_MOTION_DDOT":"0.0000000000000","TLE_LINE2":"2 45761  53.0416 212.3049 0006884 315.0520  44.9941 15.76731302120501","MEAN_ELEMENT_THEORY":"SGP4","SITE":"AFETR","LAUNCH_DATE":"2020-06-13","ECCENTRICITY":"0.00068840","NORAD_CAT_ID":"45761","MEAN_MOTION_DOT":"-0.00001922","APOAPSIS":"344.336","DECAY_DATE":null,"EPHEMERIS_TYPE":"0","CENTER_NAME":"EARTH"},{"PERIOD":"95.468","TLE_LINE1":"1 45762U 20038AJ  22216.78610150  .00000777  00000-0  67754-4 0  9992","FILE":"3529274","ELEMENT_SET_NO":"999","RA_OF_ASC_NODE":"349.4126","COUNTRY_CODE":"US","REV_AT_EPOCH":"11861","PERIAPSIS":"539.785","OBJECT_NAME":"STARLINK-1499","TLE_LINE2":"2 45762  53.0567 349.4126 0002047  96.6606 263.4617 15.08363691118615","MEAN_ELEMENT_THEORY":"SGP4","SITE":"AFETR","LAUNCH_DATE":"2020-06-13","ECCENTRICITY":"0.00020470","MEAN_MOTION_DDOT":"0.0000000000000","MEAN_MOTION_DOT":"0.00000777","DECAY_DATE":null,"APOAPSIS":"542.618","EPHEMERIS_TYPE":"0","CENTER_NAME":"EARTH","NORAD_CAT_ID":"45762","ARG_OF_PERICENTER":"96.6606","MEAN_MOTION":"15.08363691","TIME_SYSTEM":"UTC","SEMIMAJOR_AXIS":"6919.337","MEAN_ANOMALY":"263.4617","EPOCH":"2022-08-04T18:51:59.169600","GP_ID":"209586794","RCS_SIZE":"LARGE","REF_FRAME":"TEME","OBJECT_ID":"2020-038AJ","BSTAR":"0.00006775400000","OBJECT_TYPE":"PAYLOAD","CLASSIFICATION_TYPE":"U","INCLINATION":"53.0567"}];
